NORAD_CAT_ID,OBJECT_NAME,OBJECT_TYPE,EPOCH,MEAN_MOTION,ECCENTRICITY,INCLINATION,RA_OF_ASC_NODE,ARG_OF_PERICENTER,MEAN_ANOMALY,BSTAR,MEAN_MOTION_DOT,MEAN_MOTION_DDOT,TLE_LINE0,TLE_LINE1,TLE_LINE2,SEMIMAJOR_AXIS,PERIOD,APOGEE,PERIGEE,DECAYED
52641.0,STARLINK-3991,PAYLOAD,2023-04-21 20:11:56,15.08846527,7.24e-05,53.2151,305.5409,88.264,271.8435,0.00012701,1.735e-05,0.0,0 STARLINK-3991,1 52641U 22052AV  23111.84162455  .00001735  00000-0  12701-3 0  9992,2 52641  53.2151 305.5409 0000724  88.2640 271.8435 15.08846527 52568,6917.86,95.437,540.226,539.225,0.0
52641.0,STARLINK-3991,PAYLOAD,2023-04-22 12:05:48,15.08841655,9.33e-05,53.2146,302.5672,85.2487,274.8612,0.00019414,2.803e-05,0.0,0 STARLINK-3991,1 52641U 22052AV  23112.50402834  .00002803  00000-0  19414-3 0  9999,2 52641  53.2146 302.5672 0000933  85.2487 274.8612 15.08841655 52667,6917.875,95.437,540.386,539.095,0.0
52641.0,STARLINK-3991,PAYLOAD,2023-04-22 23:13:30,15.08821283,7.02e-05,53.2149,300.4845,76.9564,283.1506,-0.00020074,-3.479e-05,0.0,0 STARLINK-3991,1 52641U 22052AV  23112.96771893 -.00003479  00000-0 -20074-3 0  9999,2 52641  53.2149 300.4845 0000702  76.9564 283.1506 15.08821283 52734,6917.938,95.439,540.288,539.317,0.0
52641.0,STARLINK-3991,PAYLOAD,2023-04-23 11:56:36,15.08829649,8.47e-05,53.2156,298.104,58.0782,302.0292,6.2782e-05,7.11e-06,0.0,0 STARLINK-3991,1 52641U 22052AV  23113.49764252  .00000711  00000-0  62782-4 0  9996,2 52641  53.2156 298.1040 0000847  58.0782 302.0292 15.08829649 52440,6917.912,95.438,540.363,539.191,0.0
52641.0,STARLINK-3991,PAYLOAD,2023-04-23 23:04:17,15.08851667,6.31e-05,53.2153,296.0251,64.4984,295.6074,0.00025466,3.769e-05,0.0,0 STARLINK-3991,1 52641U 22052AV  23113.96131060  .00003769  00000-0  25466-3 0  9996,2 52641  53.2153 296.0251 0000631  64.4984 295.6074 15.08851667 52882,6917.845,95.437,540.146,539.273,0.0
52641.0,STARLINK-3991,PAYLOAD,2023-04-24 05:25:49,15.08863336,7.66e-05,53.2159,294.834,61.2104,298.8965,0.00045316,6.936e-05,0.0,0 STARLINK-3991,1 52641U 22052AV  23114.22626651  .00006936  00000-0  45316-3 0  9996,2 52641  53.2159 294.8340 0000766  61.2104 298.8965 15.08863336 52555,6917.809,95.436,540.204,539.144,0.0
52641.0,STARLINK-3991,PAYLOAD,2023-04-25 11:38:09,15.08814699,0.0001755,53.215,289.1853,86.4932,273.626,-0.0010491,-0.00016934,0.0,0 STARLINK-3991,1 52641U 22052AV  23115.48483340 -.00016934  00000-0 -10491-2 0  9997,2 52641  53.2150 289.1853 0001755  86.4932 273.6260 15.08814699 52747,6917.958,95.439,541.037,538.609,0.0
52641.0,STARLINK-3991,PAYLOAD,2023-04-26 13:04:21,15.08828793,9.56e-05,53.2148,284.4298,31.2046,328.9002,0.0003663,5.545e-05,0.0,0 STARLINK-3991,1 52641U 22052AV  23116.54469038  .00005545  00000-0  36630-3 0  9991,2 52641  53.2148 284.4298 0000956  31.2046 328.9002 15.08828793 52907,6917.915,95.438,540.441,539.118,0.0
52641.0,STARLINK-3991,PAYLOAD,2023-04-26 17:50:30,15.088443,0.0001251,53.2147,283.5365,95.4462,264.6673,0.00077328,0.00012042,0.0,0 STARLINK-3991,1 52641U 22052AV  23116.74340834  .00012042  00000-0  77328-3 0  9994,2 52641  53.2147 283.5365 0001251  95.4462 264.6673 15.08844300 52939,6917.867,95.437,540.598,538.867,0.0
52641.0,STARLINK-3991,PAYLOAD,2023-04-27 11:19:45,15.08845181,9.24e-05,53.2128,280.2633,99.4406,260.6691,0.0006684,0.00010367,0.0,0 STARLINK-3991,1 52641U 22052AV  23117.47204908  .00010367  00000-0  66840-3 0  9991,2 52641  53.2128 280.2633 0000924  99.4406 260.6691 15.08845181 53045,6917.865,95.437,540.369,539.09,0.0
52641.0,STARLINK-3991,PAYLOAD,2023-04-28 12:45:53,15.08850007,5.18e-05,53.2149,275.5061,57.8056,302.2986,-0.00011645,-2.141e-05,0.0,0 STARLINK-3991,1 52641U 22052AV  23118.53187489 -.00002141  00000-0 -11645-3 0  9999,2 52641  53.2149 275.5061 0000518  57.8056 302.2986 15.08850007 53579,6917.85,95.437,540.073,539.356,0.0
52641.0,STARLINK-3991,PAYLOAD,2023-04-28 20:42:48,15.08862854,1.68e-05,53.2147,274.0197,340.5916,19.507,0.00017841,2.555e-05,0.0,0 STARLINK-3991,1 52641U 22052AV  23118.86306682  .00002555  00000-0  17841-3 0  9994,2 52641  53.2147 274.0197 0000168 340.5916  19.5070 15.08862854 53620,6917.811,95.436,539.792,539.559,0.0
52641.0,STARLINK-3991,PAYLOAD,2023-04-29 03:04:22,15.08840163,8.8e-06,53.212,272.8292,7.9476,352.1518,-0.00019177,-3.338e-05,0.0,0 STARLINK-3991,1 52641U 22052AV  23119.12803432 -.00003338  00000-0 -19177-3 0  9995,2 52641  53.2120 272.8292 0000088   7.9476 352.1518 15.08840163 53665,6917.88,95.438,539.806,539.684,0.0
52641.0,STARLINK-3991,PAYLOAD,2023-04-29 12:36:41,15.08838985,4.14e-05,53.2155,271.0454,29.1624,330.9391,-0.00018032,-3.156e-05,0.0,0 STARLINK-3991,1 52641U 22052AV  23119.52547649 -.00003156  00000-0 -18032-3 0  9991,2 52641  53.2155 271.0454 0000414  29.1624 330.9391 15.08838985 53356,6917.883,95.438,540.035,539.462,0.0
52641.0,STARLINK-3991,PAYLOAD,2023-04-30 14:02:51,15.08837774,6.97e-05,53.216,266.2888,64.0125,296.0939,8.0948e-05,1.001e-05,0.0,0 STARLINK-3991,1 52641U 22052AV  23120.58532093  .00001001  00000-0  80948-4 0  9997,2 52641  53.2160 266.2888 0000697  64.0125 296.0939 15.08837774 53519,6917.887,95.438,540.234,539.27,0.0
52641.0,STARLINK-3991,PAYLOAD,2023-04-30 15:38:14,15.08838106,6.49e-05,53.2159,265.9912,58.369,301.7365,7.6798e-05,9.35e-06,0.0,0 STARLINK-3991,1 52641U 22052AV  23120.65156079  .00000935  00000-0  76798-4 0  9994,2 52641  53.2159 265.9912 0000649  58.3690 301.7365 15.08838106 53899,6917.886,95.438,540.2,539.302,0.0
52641.0,STARLINK-3991,PAYLOAD,2023-04-30 21:59:47,15.08848152,6.48e-05,53.2152,264.801,31.3482,328.7549,0.00027881,4.153e-05,0.0,0 STARLINK-3991,1 52641U 22052AV  23120.91651680  .00004153  00000-0  27881-3 0  9995,2 52641  53.2152 264.8010 0000648  31.3482 328.7549 15.08848152 53938,6917.855,95.437,540.169,539.272,0.0
52641.0,STARLINK-3991,PAYLOAD,2023-05-01 13:53:38,15.0883832,7.65e-05,53.2154,261.8282,39.6639,320.4409,0.00012443,1.693e-05,0.0,0 STARLINK-3991,1 52641U 22052AV  23121.57892284  .00001693  00000-0  12443-3 0  9999,2 52641  53.2154 261.8282 0000765  39.6639 320.4409 15.08838320 53663,6917.886,95.438,540.28,539.221,0.0
52641.0,STARLINK-3991,PAYLOAD,2023-05-01 15:29:02,15.08839493,8.47e-05,53.2151,261.531,37.6149,322.4902,0.00011052,1.472e-05,0.0,0 STARLINK-3991,1 52641U 22052AV  23121.64516252  .00001472  00000-0  11052-3 0  9995,2 52641  53.2151 261.5310 0000847  37.6149 322.4902 15.08839493 54049,6917.882,95.438,540.333,539.161,0.0
52641.0,STARLINK-3991,PAYLOAD,2023-05-01 17:04:25,15.08842917,9.19e-05,53.2158,261.2336,38.3219,321.7838,0.00014296,1.988e-05,0.0,0 STARLINK-3991,1 52641U 22052AV  23121.71140181  .00001988  00000-0  14296-3 0  9992,2 52641  53.2158 261.2336 0000919  38.3219 321.7838 15.08842917 53681,6917.871,95.437,540.372,539.101,0.0
52641.0,STARLINK-3991,PAYLOAD,2023-05-02 13:44:25,15.08848568,9.58e-05,53.2146,257.3673,35.7032,324.4024,0.00025913,3.84e-05,0.0,0 STARLINK-3991,1 52641U 22052AV  23122.57251878  .00003840  00000-0  25913-3 0  9990,2 52641  53.2146 257.3673 0000958  35.7032 324.4024 15.08848568 53815,6917.854,95.437,540.382,539.056,0.0
52641.0,STARLINK-3991,PAYLOAD,2023-05-02 15:19:48,15.08851145,6.07e-05,53.2146,257.0686,52.5629,307.5418,0.0002817,4.2e-05,0.0,0 STARLINK-3991,1 52641U 22052AV  23122.63875667  .00004200  00000-0  28170-3 0  9994,2 52641  53.2146 257.0686 0000607  52.5629 307.5418 15.08851145 53821,6917.846,95.437,540.131,539.291,0.0
52641.0,STARLINK-3991,PAYLOAD,2023-05-03 02:27:30,15.08847977,6.45e-05,53.2143,254.9879,42.9714,317.1329,0.00017915,2.565e-05,0.0,0 STARLINK-3991,1 52641U 22052AV  23123.10243655  .00002565  00000-0  17915-3 0  9990,2 52641  53.2143 254.9879 0000645  42.9714 317.1329 15.08847977 54263,6917.856,95.437,540.167,539.275,0.0
52641.0,STARLINK-3991,PAYLOAD,2023-05-03 13:35:12,15.0884167,4.64e-05,53.2152,252.9033,123.5711,236.5325,2.4104e-05,9.6e-07,0.0,0 STARLINK-3991,1 52641U 22052AV  23123.56611746  .00000096  00000-0  24104-4 0  9996,2 52641  53.2152 252.9033 0000464 123.5711 236.5325 15.08841670 54337,6917.875,95.437,540.061,539.419,0.0
52641.0,STARLINK-3991,PAYLOAD,2023-05-03 15:10:35,15.08838461,5.23e-05,53.2147,252.6066,72.7201,287.3848,-1.7893e-05,-5.72e-06,0.0,0 STARLINK-3991,1 52641U 22052AV  23123.63235970 -.00000572  00000-0 -17893-4 0  9993,2 52641  53.2147 252.6066 0000523  72.7201 287.3848 15.08838461 53976,6917.885,95.438,540.112,539.388,0.0
52641.0,STARLINK-3991,PAYLOAD,2023-05-04 13:25:59,15.08846087,4.13e-05,53.2146,248.4438,95.4564,264.6476,6.5967e-05,7.63e-06,0.0,0 STARLINK-3991,1 52641U 22052AV  23124.55971680  .00000763  00000-0  65967-4 0  9995,2 52641  53.2146 248.4438 0000413  95.4564 264.6476 15.08846087 54118,6917.862,95.437,540.012,539.441,0.0
52641.0,STARLINK-3991,PAYLOAD,2023-05-05 13:16:46,15.0883988,5.75e-05,53.2147,243.985,50.4128,309.6915,0.00016275,2.304e-05,0.0,0 STARLINK-3991,1 52641U 22052AV  23125.55332167  .00002304  00000-0  16275-3 0  9997,2 52641  53.2147 243.9850 0000575  50.4128 309.6915 15.08839880 54631,6917.881,95.438,540.144,539.348,0.0
52641.0,STARLINK-3991,PAYLOAD,2023-05-05 16:27:33,15.08844941,6.35e-05,53.2149,243.3902,46.1504,313.954,0.00017475,2.495e-05,0.0,0 STARLINK-3991,1 52641U 22052AV  23125.68579899  .00002495  00000-0  17475-3 0  9990,2 52641  53.2149 243.3902 0000635  46.1504 313.9540 15.08844941 54289,6917.865,95.437,540.17,539.291,0.0
52641.0,STARLINK-3991,PAYLOAD,2023-05-06 13:07:33,15.08843264,5.96e-05,53.2156,239.5231,63.0964,297.0089,8.426e-05,1.054e-05,0.0,0 STARLINK-3991,1 52641U 22052AV  23126.54692046  .00001054  00000-0  84260-4 0  9993,2 52641  53.2156 239.5231 0000596  63.0964 297.0089 15.08843264 54415,6917.87,95.437,540.148,539.323,0.0
52641.0,STARLINK-3991,PAYLOAD,2023-05-07 00:15:15,15.08848088,6.23e-05,53.2153,237.4433,63.2067,296.8989,0.00020537,2.983e-05,0.0,0 STARLINK-3991,1 52641U 22052AV  23127.01059852  .00002983  00000-0  20537-3 0  9996,2 52641  53.2153 237.4433 0000623  63.2067 296.8989 15.08848088 54853,6917.856,95.437,540.152,539.29,0.0
